NORAD_CAT_ID,OBJECT_NAME,OBJECT_TYPE,EPOCH,MEAN_MOTION,ECCENTRICITY,INCLINATION,RA_OF_ASC_NODE,ARG_OF_PERICENTER,MEAN_ANOMALY,BSTAR,MEAN_MOTION_DOT,MEAN_MOTION_DDOT,TLE_LINE0,TLE_LINE1,TLE_LINE2,SEMIMAJOR_AXIS,PERIOD,APOGEE,PERIGEE,DECAYED
55637.0,STARLINK-5062,PAYLOAD,2023-06-07 22:00:00,15.33340596,0.0003369,69.9989,201.7626,267.3772,5.6141,-0.028314,-0.00844796,0.0,0 STARLINK-5062,1 55637U 23021K   23158.91667824 -.00844796  00000-0 -28314-1 0  9995,2 55637  69.9989 201.7626 0003369 267.3772   5.6141 15.33340596 17797,6843.991,93.913,468.162,463.55,0.0
55637.0,STARLINK-5062,PAYLOAD,2023-06-08 12:29:24,15.33911688,0.0003772,69.9969,200.1609,279.4634,80.6117,-0.0086413,-0.00274405,0.0,0 STARLINK-5062,1 55637U 23021K   23159.52042596 -.00274405  00000-0 -86413-2 0  9995,2 55637  69.9969 200.1609 0003772 279.4634  80.6117 15.33911688 18195,6842.292,93.878,466.738,461.576,0.0
55637.0,STARLINK-5062,PAYLOAD,2023-06-08 14:00:01,15.32070773,0.0003568,69.999,199.9902,274.1026,76.3338,-0.031723,-0.00904236,0.0,0 STARLINK-5062,1 55637U 23021K   23159.58334491 -.00904236  00000-0 -31723-1 0  9994,2 55637  69.9990 199.9902 0003568 274.1026  76.3338 15.32070773 17905,6847.772,93.99,472.08,467.194,0.0
55637.0,STARLINK-5062,PAYLOAD,2023-06-08 22:00:00,15.3138358,0.0003473,69.9991,199.1053,268.0222,119.9785,-0.030045,-0.00843071,0.0,0 STARLINK-5062,1 55637U 23021K   23159.91667824 -.00843071  00000-0 -30045-1 0  9995,2 55637  69.9991 199.1053 0003473 268.0222 119.9785 15.31383580  1309,6849.82,94.033,474.064,469.306,0.0
55637.0,STARLINK-5062,PAYLOAD,2023-06-09 06:00:00,15.30790622,0.0003501,69.9995,198.2213,270.4043,154.3561,-0.03499,-0.00965875,0.0,0 STARLINK-5062,1 55637U 23021K   23160.25001157 -.00965875  00000-0 -34990-1 0  9995,2 55637  69.9995 198.2213 0003501 270.4043 154.3561 15.30790622 18009,6851.589,94.069,475.853,471.055,0.0
55637.0,STARLINK-5062,PAYLOAD,2023-06-09 12:00:25,15.31989399,0.0004224,69.9971,197.5604,296.0064,64.0677,-0.0085977,-0.00257587,0.0,0 STARLINK-5062,1 55637U 23021K   23160.50029196 -.00257587  00000-0 -85977-2 0  9992,2 55637  69.9971 197.5604 0004224 296.0064  64.0677 15.31989399 18343,6848.014,93.995,472.772,466.987,0.0
55637.0,STARLINK-5062,PAYLOAD,2023-06-09 22:00:00,15.29430763,0.0003375,69.9993,196.4559,270.1265,225.8428,-0.032202,-0.00849808,0.0,0 STARLINK-5062,1 55637U 23021K   23160.91667824 -.00849808  00000-0 -32202-1 0  9998,2 55637  69.9993 196.4559 0003375 270.1265 225.8428 15.29430763 18104,6855.65,94.153,479.829,475.201,0.0
55637.0,STARLINK-5062,PAYLOAD,2023-06-10 06:00:02,15.28827468,0.0003379,69.9998,195.5744,270.4772,259.9715,-0.036803,-0.00956698,0.0,0 STARLINK-5062,1 55637U 23021K   23161.25002315 -.00956698  00000-0 -36803-1 0  9991,2 55637  69.9998 195.5744 0003379 270.4772 259.9715 15.28827468 18158,6857.453,94.19,481.635,477.001,0.0
55637.0,STARLINK-5062,PAYLOAD,2023-06-10 14:00:01,15.28159559,0.0003368,69.9995,194.6939,273.7322,290.2952,-0.035879,-0.00905602,0.0,0 STARLINK-5062,1 55637U 23021K   23161.58334491 -.00905602  00000-0 -35879-1 0  9991,2 55637  69.9995 194.6939 0003368 273.7322 290.2952 15.28159559  1305,6859.451,94.231,483.626,479.006,0.0
55637.0,STARLINK-5062,PAYLOAD,2023-06-10 22:00:00,15.27475375,0.0003356,69.9996,193.8142,266.6764,330.2212,-0.034266,-0.00851431,0.0,0 STARLINK-5062,1 55637U 23021K   23161.91667824 -.00851431  00000-0 -34266-1 0  9996,2 55637  69.9996 193.8142 0003356 266.6764 330.2212 15.27475375 18253,6861.499,94.273,485.667,481.062,0.0
55637.0,STARLINK-5062,PAYLOAD,2023-06-11 06:00:00,15.26866575,0.000341,69.9999,192.9355,268.3471,0.6213,-0.038811,-0.00950639,0.0,0 STARLINK-5062,1 55637U 23021K   23162.25001157 -.00950639  00000-0 -38811-1 0  9995,2 55637  69.9999 192.9355 0003410 268.3471   0.6213 15.26866575 18307,6863.323,94.311,487.529,482.848,0.0
55637.0,STARLINK-5062,PAYLOAD,2023-06-11 14:00:01,15.26212908,0.0003481,69.9995,192.0576,272.5993,27.6593,-0.038766,-0.00932308,0.0,0 STARLINK-5062,1 55637U 23021K   23162.58334491 -.00932308  00000-0 -38766-1 0  9993,2 55637  69.9995 192.0576 0003481 272.5993  27.6593 15.26212908  1300,6865.283,94.351,489.538,484.758,0.0
55637.0,STARLINK-5062,PAYLOAD,2023-06-11 22:00:00,15.25516525,0.0003453,69.9996,191.1808,266.8493,63.9373,-0.036218,-0.00848272,0.0,0 STARLINK-5062,1 55637U 23021K   23162.91667824 -.00848272  00000-0 -36218-1 0  9995,2 55637  69.9996 191.1808 0003453 266.8493  63.9373 15.25516525  1309,6867.372,94.394,491.608,486.866,0.0
55637.0,STARLINK-5062,PAYLOAD,2023-06-12 06:00:00,15.24906938,0.0003486,69.9998,190.3047,269.8134,90.6975,-0.040999,-0.00946788,0.0,0 STARLINK-5062,1 55637U 23021K   23163.25001157 -.00946788  00000-0 -40999-1 0  9996,2 55637  69.9998 190.3047 0003486 269.8134  90.6975 15.24906938 18468,6869.202,94.432,493.461,488.672,0.0
55637.0,STARLINK-5062,PAYLOAD,2023-06-12 14:00:01,15.24264526,0.0003482,69.9994,189.4294,275.134,114.3792,-0.041695,-0.00944651,0.0,0 STARLINK-5062,1 55637U 23021K   23163.58335648 -.00944651  00000-0 -41695-1 0  9998,2 55637  69.9994 189.4294 0003482 275.1340 114.3792 15.24264526  1308,6871.132,94.472,495.389,490.604,0.0
55637.0,STARLINK-5062,PAYLOAD,2023-06-12 22:00:00,15.23558492,0.0003397,69.9994,188.5552,269.0114,148.6232,-0.038277,-0.00845568,0.0,0 STARLINK-5062,1 55637U 23021K   23163.91667824 -.00845568  00000-0 -38277-1 0  9998,2 55637  69.9994 188.5552 0003397 269.0114 148.6232 15.23558492 18563,6873.254,94.516,497.454,492.785,0.0
55637.0,STARLINK-5062,PAYLOAD,2023-06-13 00:00:00,15.23431426,0.0003236,69.9995,188.3369,268.1414,246.3985,-0.041059,-0.00909944,0.0,0 STARLINK-5062,1 55637U 23021K   23164.00001157 -.00909944  00000-0 -41059-1 0  9991,2 55637  69.9995 188.3369 0003236 268.1414 246.3985 15.23431426  1305,6873.637,94.523,497.726,493.277,0.0
55637.0,STARLINK-5062,PAYLOAD,2023-06-13 06:00:02,15.22945934,0.0003387,69.9995,187.6818,271.5936,173.4832,-0.043224,-0.00941738,0.0,0 STARLINK-5062,1 55637U 23021K   23164.25002315 -.00941738  00000-0 -43224-1 0  9998,2 55637  69.9995 187.6818 0003387 271.5936 173.4832 15.22945934 18616,6875.097,94.554,499.291,494.634,0.0
55637.0,STARLINK-5062,PAYLOAD,2023-06-13 14:00:01,15.22311633,0.000332,69.999,186.8092,276.548,195.0548,-0.044556,-0.00951856,0.0,0 STARLINK-5062,1 55637U 23021K   23164.58334491 -.00951856  00000-0 -44556-1 0  9998,2 55637  69.9990 186.8092 0003320 276.5480 195.0548 15.22311633  1307,6877.007,94.593,501.155,496.589,0.0
55637.0,STARLINK-5062,PAYLOAD,2023-06-13 22:00:00,15.21604343,0.0003267,69.999,185.9377,269.5513,227.889,-0.040666,-0.00847573,0.0,0 STARLINK-5062,1 55637U 23021K   23164.91667824 -.00847573  00000-0 -40666-1 0  9992,2 55637  69.9990 185.9377 0003267 269.5513 227.8890 15.21604343  1308,6879.138,94.637,503.25,498.755,0.0
55637.0,STARLINK-5062,PAYLOAD,2023-06-14 06:00:00,15.20980591,0.0003278,69.999,185.0669,271.6372,250.8397,-0.045108,-0.00928371,0.0,0 STARLINK-5062,1 55637U 23021K   23165.25001157 -.00928371  00000-0 -45108-1 0  9993,2 55637  69.9990 185.0669 0003278 271.6372 250.8397 15.20980591 18769,6881.019,94.676,505.139,500.628,0.0
55637.0,STARLINK-5062,PAYLOAD,2023-06-14 14:00:01,15.20359012,0.0003215,69.9986,184.1969,275.1305,271.5851,-0.047684,-0.00961029,0.0,0 STARLINK-5062,1 55637U 23021K   23165.58334491 -.00961029  00000-0 -47684-1 0  9997,2 55637  69.9986 184.1969 0003215 275.1305 271.5851 15.20359012  1308,6882.894,94.714,506.972,502.546,0.0
55637.0,STARLINK-5062,PAYLOAD,2023-06-14 22:00:00,15.19649236,0.0003221,69.9986,183.3279,268.0739,302.1322,-0.043132,-0.00848777,0.0,0 STARLINK-5062,1 55637U 23021K   23165.91667824 -.00848777  00000-0 -43132-1 0  9991,2 55637  69.9986 183.3279 0003221 268.0739 302.1322 15.19649236  1304,6885.037,94.759,509.12,504.684,0.0
55637.0,STARLINK-5062,PAYLOAD,2023-06-15 14:00:01,15.18405824,0.0003256,69.9981,181.5924,273.9047,340.8835,-0.050934,-0.0096915,0.0,0 STARLINK-5062,1 55637U 23021K   23166.58334491 -.00969150  00000-0 -50934-1 0  9993,2 55637  69.9981 181.5924 0003256 273.9047 340.8835 15.18405824 18961,6888.795,94.836,512.903,508.417,0.0
55637.0,STARLINK-5062,PAYLOAD,2023-06-15 20:00:01,15.17845983,0.0003161,69.9983,180.9425,270.5375,270.1926,-0.045061,-0.0085196,0.0,0 STARLINK-5062,1 55637U 23021K   23166.83334491 -.00851960  00000-0 -45061-1 0  9995,2 55637  69.9983 180.9425 0003161 270.5375 270.1926 15.17845983  1303,6890.489,94.871,514.532,510.176,0.0
55637.0,STARLINK-5062,PAYLOAD,2023-06-16 06:00:00,15.17056135,0.0003338,69.9982,179.8605,271.2022,25.0771,-0.049411,-0.00908897,0.0,0 STARLINK-5062,1 55637U 23021K   23167.25001157 -.00908897  00000-0 -49411-1 0  9997,2 55637  69.9982 179.8605 0003338 271.2022  25.0771 15.17056135 19073,6892.88,94.921,517.046,512.445,0.0
55637.0,STARLINK-5062,PAYLOAD,2023-06-16 14:00:01,15.16450261,0.0003339,69.9978,178.9957,274.6519,41.1689,-0.054115,-0.00973015,0.0,0 STARLINK-5062,1 55637U 23021K   23167.58334491 -.00973015  00000-0 -54115-1 0  9994,2 55637  69.9978 178.9957 0003339 274.6519  41.1689 15.16450261  1308,6894.716,94.959,518.883,514.279,0.0
55637.0,STARLINK-5062,PAYLOAD,2023-06-16 22:00:00,15.1573998,0.0003364,69.998,178.1319,268.6217,65.9945,-0.048627,-0.00864642,0.0,0 STARLINK-5062,1 55637U 23021K   23167.91667824 -.00864642  00000-0 -48627-1 0  9996,2 55637  69.9980 178.1319 0003364 268.6217  65.9945 15.15739980  1307,6896.87,95.003,521.055,516.415,0.0
55637.0,STARLINK-5062,PAYLOAD,2023-06-17 06:00:02,15.15096998,0.0003365,69.998,177.2688,272.4873,80.1945,-0.052,-0.00904792,0.0,0 STARLINK-5062,1 55637U 23021K   23168.25002315 -.00904792  00000-0 -52000-1 0  9993,2 55637  69.9980 177.2688 0003365 272.4873  80.1945 15.15096998 19222,6898.821,95.043,523.008,518.365,0.0
55637.0,STARLINK-5062,PAYLOAD,2023-06-17 09:13:03,15.16530747,0.0004155,69.998,176.9296,273.3694,86.6999,-0.014105,-0.00266015,0.0,0 STARLINK-5062,1 55637U 23021K   23168.38407191 -.00266015  00000-0 -14105-1 0  9991,2 55637  69.9980 176.9296 0004155 273.3694  86.6999 15.16530747 19543,6894.472,94.954,519.202,513.473,0.0
